[{"OBJECT_NAME":"NOAA 17","OBJECT_ID":"2002-032A","EPOCH":"2026-03-06T14:08:00.994560","MEAN_MOTION":14.26187171,"ECCENTRICITY":0.00106373,"INCLINATION":98.8537,"RA_OF_ASC_NODE":30.1858,"ARG_OF_PERICENTER":291.6588,"MEAN_ANOMALY":68.3458,"EPHEMERIS_TYPE":0,"CLASSIFICATION_TYPE":"U","NORAD_CAT_ID":27453,"ELEMENT_SET_NO":999,"REV_AT_EPOCH":23236,"BSTAR":0.00015726373,"MEAN_MOTION_DOT":3.31e-6,"MEAN_MOTION_DDOT":0},{"OBJECT_NAME":"NOAA 18","OBJECT_ID":"2005-018A","EPOCH":"2026-03-06T15:21:37.672704","MEAN_MOTION":14.13710085,"ECCENTRICITY":0.00153326,"INCLINATION":98.8161,"RA_OF_ASC_NODE":146.79,"ARG_OF_PERICENTER":83.558,"MEAN_ANOMALY":276.7338,"EPHEMERIS_TYPE":0,"CLASSIFICATION_TYPE":"U","NORAD_CAT_ID":28654,"ELEMENT_SET_NO":999,"REV_AT_EPOCH":7182,"BSTAR":6.5444152e-5,"MEAN_MOTION_DOT":8.0e-7,"MEAN_MOTION_DDOT":0},{"OBJECT_NAME":"NOAA 19","OBJECT_ID":"2009-005A","EPOCH":"2026-03-06T14:53:45.717792","MEAN_MOTION":14.13456134,"ECCENTRICITY":0.00130068,"INCLINATION":98.9612,"RA_OF_ASC_NODE":136.3865,"ARG_OF_PERICENTER":323.9188,"MEAN_ANOMALY":36.1105,"EPHEMERIS_TYPE":0,"CLASSIFICATION_TYPE":"U","NORAD_CAT_ID":33591,"ELEMENT_SET_NO":999,"REV_AT_EPOCH":87999,"BSTAR":6.6896283e-5,"MEAN_MOTION_DOT":8.1e-7,"MEAN_MOTION_DDOT":0},{"OBJECT_NAME":"SUOMI NPP","OBJECT_ID":"2011-061A","EPOCH":"2026-03-06T13:42:50.659488","MEAN_MOTION":14.19542526,"ECCENTRICITY":4.0e-5,"INCLINATION":98.7867,"RA_OF_ASC_NODE":7.1989,"ARG_OF_PERICENTER":259.5354,"MEAN_ANOMALY":100.5777,"EPHEMERIS_TYPE":0,"CLASSIFICATION_TYPE":"U","NORAD_CAT_ID":37849,"ELEMENT_SET_NO":999,"REV_AT_EPOCH":74388,"BSTAR":8.9496156e-5,"MEAN_MOTION_DOT":1.44e-6,"MEAN_MOTION_DDOT":0},{"OBJECT_NAME":"NOAA 20 (JPSS-1)","OBJECT_ID":"2017-073A","EPOCH":"2026-03-06T14:03:56.944800","MEAN_MOTION":14.1953512,"ECCENTRICITY":0.00010779,"INCLINATION":98.7689,"RA_OF_ASC_NODE":6.0041,"ARG_OF_PERICENTER":141.2468,"MEAN_ANOMALY":218.8786,"EPHEMERIS_TYPE":0,"CLASSIFICATION_TYPE":"U","NORAD_CAT_ID":43013,"ELEMENT_SET_NO":999,"REV_AT_EPOCH":42991,"BSTAR":8.1391e-5,"MEAN_MOTION_DOT":1.27e-6,"MEAN_MOTION_DDOT":0},{"OBJECT_NAME":"NOAA 21 (JPSS-2)","OBJECT_ID":"2022-150A","EPOCH":"2026-03-06T13:12:28.787616","MEAN_MOTION":14.19551216,"ECCENTRICITY":0.00025975,"INCLINATION":98.7552,"RA_OF_ASC_NODE":5.8522,"ARG_OF_PERICENTER":112.063,"MEAN_ANOMALY":248.0822,"EPHEMERIS_TYPE":0,"CLASSIFICATION_TYPE":"U","NORAD_CAT_ID":54234,"ELEMENT_SET_NO":999,"REV_AT_EPOCH":17198,"BSTAR":8.5472919e-5,"MEAN_MOTION_DOT":1.36e-6,"MEAN_MOTION_DDOT":0}]
