NOAA 17                 
1 27453U 02032A   26065.58890040  .00000331  00000+0  15726-3 0  9991
2 27453  98.8537  30.1858 0010637 291.6588  68.3458 14.26187171232362
NOAA 18                 
1 28654U 05018A   26065.64001936  .00000080  00000+0  65444-4 0  9991
2 28654  98.8161 146.7900 0015332  83.5580 276.7338 14.13710085 71824
NOAA 19                 
1 33591U 09005A   26065.62066803  .00000081  00000+0  66896-4 0  9992
2 33591  98.9612 136.3865 0013006 323.9188  36.1105 14.13456134879994
SUOMI NPP               
1 37849U 11061A   26065.57141967  .00000144  00000+0  89496-4 0  9997
2 37849  98.7867   7.1989 0000400 259.5354 100.5777 14.19542526743885
NOAA 20 (JPSS-1)        
1 43013U 17073A   26065.58607575  .00000127  00000+0  81391-4 0  9996
2 43013  98.7689   6.0041 0001077 141.2468 218.8786 14.19535120429918
NOAA 21 (JPSS-2)        
1 54234U 22150A   26065.55033319  .00000136  00000+0  85473-4 0  9996
2 54234  98.7552   5.8522 0002597 112.0630 248.0822 14.19551216171981
